{
  "type": "FeatureCollection",
  "features": [
    {
      "type": "Feature",
      "properties": {
        "norad_id": 19071,
        "name": "OSCAR 32",
        "group": "nnss",
        "lat": -25.290232088541977,
        "lon": 16.383359707766036,
        "alt_km": 1269.9956371622839,
        "timestamp": "2025-12-03T06:58:43.506142+00:00",
        "meta_object_name": "OSCAR 32",
        "meta_object_id": "1988-033B",
        "meta_epoch": "2025-12-02T17:15:59.737824",
        "meta_mean_motion": 13.27951891,
        "meta_eccentricity": 0.018752,
        "meta_inclination": 90.3227,
        "meta_ra_of_asc_node": 16.2129,
        "meta_arg_of_pericenter": 194.6594,
        "meta_mean_anomaly": 289.0383,
        "meta_ephemeris_type": 0,
        "meta_classification_type": "U",
        "meta_norad_cat_id": 19071,
        "meta_element_set_no": 999,
        "meta_rev_at_epoch": 82132,
        "meta_bstar": 0.00016983,
        "meta_mean_motion_dot": 9.3e-07,
        "meta_mean_motion_ddot": 0,
        "tle_line1": "1 19071U 88033B   25336.71944141  .00000093  00000+0  16983-3 0  9991",
        "tle_line2": "2 19071  90.3227  16.2129 0187520 194.6594 289.0383 13.27951891821320"
      },
      "geometry": {
        "type": "Point",
        "coordinates": [
          16.383359707766036,
          -25.290232088541977
        ]
      }
    },
    {
      "type": "Feature",
      "properties": {
        "norad_id": 19223,
        "name": "NOVA 2",
        "group": "nnss",
        "lat": -19.278401577137544,
        "lon": 78.27959760955599,
        "alt_km": 1167.2329837657735,
        "timestamp": "2025-12-03T06:58:43.506152+00:00",
        "meta_object_name": "NOVA 2",
        "meta_object_id": "1988-052A",
        "meta_epoch": "2025-12-02T20:47:07.749024",
        "meta_mean_motion": 13.22933997,
        "meta_eccentricity": 0.0031375,
        "meta_inclination": 89.9872,
        "meta_ra_of_asc_node": 78.2846,
        "meta_arg_of_pericenter": 43.4951,
        "meta_mean_anomaly": 76.0711,
        "meta_ephemeris_type": 0,
        "meta_classification_type": "U",
        "meta_norad_cat_id": 19223,
        "meta_element_set_no": 999,
        "meta_rev_at_epoch": 80817,
        "meta_bstar": 0.00014136,
        "meta_mean_motion_dot": 6.8e-07,
        "meta_mean_motion_ddot": 0,
        "tle_line1": "1 19223U 88052A   25336.86606191  .00000068  00000+0  14136-3 0  9997",
        "tle_line2": "2 19223  89.9872  78.2846 0031375  43.4951  76.0711 13.22933997808176"
      },
      "geometry": {
        "type": "Point",
        "coordinates": [
          78.27959760955599,
          -19.278401577137544
        ]
      }
    },
    {
      "type": "Feature",
      "properties": {
        "norad_id": 19419,
        "name": "OSCAR 25",
        "group": "nnss",
        "lat": 71.66476941864303,
        "lon": -159.67939928706534,
        "alt_km": 1160.749973648154,
        "timestamp": "2025-12-03T06:58:43.506163+00:00",
        "meta_object_name": "OSCAR 25",
        "meta_object_id": "1988-074A",
        "meta_epoch": "2025-12-02T16:42:42.390144",
        "meta_mean_motion": 13.42620308,
        "meta_eccentricity": 0.0094211,
        "meta_inclination": 90.0357,
        "meta_ra_of_asc_node": 20.2107,
        "meta_arg_of_pericenter": 275.0259,
        "meta_mean_anomaly": 201.9843,
        "meta_ephemeris_type": 0,
        "meta_classification_type": "U",
        "meta_norad_cat_id": 19419,
        "meta_element_set_no": 999,
        "meta_rev_at_epoch": 82505,
        "meta_bstar": 0.00023232,
        "meta_mean_motion_dot": 1.43e-06,
        "meta_mean_motion_ddot": 0,
        "tle_line1": "1 19419U 88074A   25336.69632396  .00000143  00000+0  23232-3 0  9996",
        "tle_line2": "2 19419  90.0357  20.2107 0094211 275.0259 201.9843 13.42620308825055"
      },
      "geometry": {
        "type": "Point",
        "coordinates": [
          -159.67939928706534,
          71.66476941864303
        ]
      }
    },
    {
      "type": "Feature",
      "properties": {
        "norad_id": 19420,
        "name": "OSCAR 31",
        "group": "nnss",
        "lat": -5.394386990150914,
        "lon": 20.56473720658774,
        "alt_km": 1099.3795682430164,
        "timestamp": "2025-12-03T06:58:43.506176+00:00",
        "meta_object_name": "OSCAR 31",
        "meta_object_id": "1988-074B",
        "meta_epoch": "2025-12-02T17:19:08.705856",
        "meta_mean_motion": 13.42582051,
        "meta_eccentricity": 0.009244,
        "meta_inclination": 90.0373,
        "meta_ra_of_asc_node": 20.5591,
        "meta_arg_of_pericenter": 269.0629,
        "meta_mean_anomaly": 215.341,
        "meta_ephemeris_type": 0,
        "meta_classification_type": "U",
        "meta_norad_cat_id": 19420,
        "meta_element_set_no": 999,
        "meta_rev_at_epoch": 82516,
        "meta_bstar": 0.00018827,
        "meta_mean_motion_dot": 1.17e-06,
        "meta_mean_motion_ddot": 0,
        "tle_line1": "1 19420U 88074B   25336.72162854  .00000117  00000+0  18827-3 0  9994",
        "tle_line2": "2 19420  90.0373  20.5591 0092440 269.0629 215.3410 13.42582051825164"
      },
      "geometry": {
        "type": "Point",
        "coordinates": [
          20.56473720658774,
          -5.394386990150914
        ]
      }
    }
  ]
}